{
  "norad_id": 65605,
  "name": "STARLINK-35171",
  "history": [
    {
      "epoch": "2026-04-11T18:59:24.455328Z",
      "apogee_km": 549.907640561054,
      "perigee_km": 549.0846377441212,
      "latitude_deg": -3.782711985419902e-05,
      "longitude_deg": 46.45843255730864,
      "height_km": 552.8424732378301,
      "semi_major_axis_km": 6927.633139152587,
      "eccentricity": 5.94e-05,
      "inclination_deg": 97.6041,
      "raan_deg": 171.316,
      "arg_perigee_deg": 133.2199,
      "mean_anomaly_deg": 226.9077,
      "mean_motion_rev_day": 15.05654895
    },
    {
      "epoch": "2026-04-13T02:53:24.732960Z",
      "apogee_km": 549.9904700492889,
      "perigee_km": 549.018660490513,
      "latitude_deg": 6.701792673671521e-05,
      "longitude_deg": -72.04282854190522,
      "height_km": 552.8740917685282,
      "semi_major_axis_km": 6927.641565269901,
      "eccentricity": 7.014e-05,
      "inclination_deg": 97.6038,
      "raan_deg": 172.626,
      "arg_perigee_deg": 128.9057,
      "mean_anomaly_deg": 231.2233,
      "mean_motion_rev_day": 15.05652148
    },
    {
      "epoch": "2026-04-14T10:47:24.735840Z",
      "apogee_km": 550.0840458852681,
      "perigee_km": 548.9265754080043,
      "latitude_deg": 3.576753784120797e-05,
      "longitude_deg": 169.4571783228682,
      "height_km": 552.9145894021705,
      "semi_major_axis_km": 6927.642310646635,
      "eccentricity": 8.354e-05,
      "inclination_deg": 97.6037,
      "raan_deg": 173.9361,
      "arg_perigee_deg": 126.6054,
      "mean_anomaly_deg": 233.525,
      "mean_motion_rev_day": 15.05651905
    },
    {
      "epoch": "2026-04-15T15:30:00.787680Z",
      "apogee_km": 550.0783873109349,
      "perigee_km": 548.9436385664158,
      "latitude_deg": 3.08761815361883e-05,
      "longitude_deg": 98.80698670060343,
      "height_km": 552.960603720569,
      "semi_major_axis_km": 6927.648012938675,
      "eccentricity": 8.19e-05,
      "inclination_deg": 97.6042,
      "raan_deg": 175.1152,
      "arg_perigee_deg": 132.7743,
      "mean_anomaly_deg": 227.3553,
      "mean_motion_rev_day": 15.05650046
    },
    {
      "epoch": "2026-04-16T10:38:24.732384Z",
      "apogee_km": 550.0875878405914,
      "perigee_km": 548.9140459944056,
      "latitude_deg": -7.363496111381044e-05,
      "longitude_deg": 171.70748128573393,
      "height_km": 553.0013691974863,
      "semi_major_axis_km": 6927.637816917499,
      "eccentricity": 8.47e-05,
      "inclination_deg": 97.604,
      "raan_deg": 175.9015,
      "arg_perigee_deg": 138.0185,
      "mean_anomaly_deg": 222.1106,
      "mean_motion_rev_day": 15.0565337
    },
    {
      "epoch": "2026-04-17T21:43:48.830592Z",
      "apogee_km": 550.1016089428513,
      "perigee_km": 548.8927367796869,
      "latitude_deg": 3.701259400995131e-05,
      "longitude_deg": 5.357363282768643,
      "height_km": 553.0548732885973,
      "semi_major_axis_km": 6927.634172861269,
      "eccentricity": 8.725e-05,
      "inclination_deg": 97.6033,
      "raan_deg": 177.3429,
      "arg_perigee_deg": 144.6855,
      "mean_anomaly_deg": 215.443,
      "mean_motion_rev_day": 15.05654558
    }
  ]
}